[{"OBJECT_NAME":"NOAA 17","OBJECT_ID":"2002-032A","EPOCH":"2026-04-01T11:26:14.709696","MEAN_MOTION":14.26202291,"ECCENTRICITY":0.0010997,"INCLINATION":98.8582,"RA_OF_ASC_NODE":56.3532,"ARG_OF_PERICENTER":209.6836,"MEAN_ANOMALY":150.3721,"EPHEMERIS_TYPE":0,"CLASSIFICATION_TYPE":"U","NORAD_CAT_ID":27453,"ELEMENT_SET_NO":999,"REV_AT_EPOCH":23605,"BSTAR":0.00011829,"MEAN_MOTION_DOT":2.38e-6,"MEAN_MOTION_DDOT":0},{"OBJECT_NAME":"NOAA 18","OBJECT_ID":"2005-018A","EPOCH":"2026-04-01T11:21:03.489984","MEAN_MOTION":14.13715383,"ECCENTRICITY":0.0014367,"INCLINATION":98.8127,"RA_OF_ASC_NODE":172.2579,"ARG_OF_PERICENTER":13.6116,"MEAN_ANOMALY":346.5441,"EPHEMERIS_TYPE":0,"CLASSIFICATION_TYPE":"U","NORAD_CAT_ID":28654,"ELEMENT_SET_NO":999,"REV_AT_EPOCH":7547,"BSTAR":5.4111e-5,"MEAN_MOTION_DOT":5.9e-7,"MEAN_MOTION_DDOT":0},{"OBJECT_NAME":"NOAA 19","OBJECT_ID":"2009-005A","EPOCH":"2026-04-01T10:59:48.678720","MEAN_MOTION":14.13461162,"ECCENTRICITY":0.0012838,"INCLINATION":98.9566,"RA_OF_ASC_NODE":162.263,"ARG_OF_PERICENTER":245.2205,"MEAN_ANOMALY":114.7632,"EPHEMERIS_TYPE":0,"CLASSIFICATION_TYPE":"U","NORAD_CAT_ID":33591,"ELEMENT_SET_NO":999,"REV_AT_EPOCH":88364,"BSTAR":5.8929e-5,"MEAN_MOTION_DOT":6.6e-7,"MEAN_MOTION_DDOT":0},{"OBJECT_NAME":"SUOMI NPP","OBJECT_ID":"2011-061A","EPOCH":"2026-04-01T12:14:46.570272","MEAN_MOTION":14.19499614,"ECCENTRICITY":0.0001865,"INCLINATION":98.7899,"RA_OF_ASC_NODE":32.9347,"ARG_OF_PERICENTER":150.3832,"MEAN_ANOMALY":209.7449,"EPHEMERIS_TYPE":0,"CLASSIFICATION_TYPE":"U","NORAD_CAT_ID":37849,"ELEMENT_SET_NO":999,"REV_AT_EPOCH":74756,"BSTAR":6.9283e-5,"MEAN_MOTION_DOT":1.02e-6,"MEAN_MOTION_DDOT":0},{"OBJECT_NAME":"NOAA 20 (JPSS-1)","OBJECT_ID":"2017-073A","EPOCH":"2026-04-01T10:53:53.559168","MEAN_MOTION":14.19541965,"ECCENTRICITY":0.0001983,"INCLINATION":98.7719,"RA_OF_ASC_NODE":31.6186,"ARG_OF_PERICENTER":107.1249,"MEAN_ANOMALY":253.0144,"EPHEMERIS_TYPE":0,"CLASSIFICATION_TYPE":"U","NORAD_CAT_ID":43013,"ELEMENT_SET_NO":999,"REV_AT_EPOCH":43358,"BSTAR":6.1933e-5,"MEAN_MOTION_DOT":8.6e-7,"MEAN_MOTION_DDOT":0},{"OBJECT_NAME":"NOAA 21 (JPSS-2)","OBJECT_ID":"2022-150A","EPOCH":"2026-04-01T11:43:30.163584","MEAN_MOTION":14.1955816,"ECCENTRICITY":0.0002688,"INCLINATION":98.7581,"RA_OF_ASC_NODE":31.4967,"ARG_OF_PERICENTER":66.8741,"MEAN_ANOMALY":293.2718,"EPHEMERIS_TYPE":0,"CLASSIFICATION_TYPE":"U","NORAD_CAT_ID":54234,"ELEMENT_SET_NO":999,"REV_AT_EPOCH":17566,"BSTAR":6.6364e-5,"MEAN_MOTION_DOT":9.6e-7,"MEAN_MOTION_DDOT":0}]
