{"fetched_at":"2026-04-02T02:06:33Z","count":6526,"tles":[{"name":"NOAA 19","line1":"1 33591U 09005A   26091.45820230  .00000066  00000+0  58929-4 0  9995","line2":"2 33591  98.9566 162.2630 0012838 245.2205 114.7632 14.13461162883640","category":"Weather"},{"name":"NOAA 18","line1":"1 28654U 05018A   26091.47295706  .00000059  00000+0  54111-4 0  9996","line2":"2 28654  98.8127 172.2579 0014367  13.6116 346.5441 14.13715383 75470","category":"Weather"},{"name":"NOAA 20 (JPSS-1)","line1":"1 43013U 17073A   26091.45409212  .00000086  00000+0  61933-4 0  9993","line2":"2 43013  98.7719  31.6186 0001983 107.1249 253.0144 14.19541965433581","category":"Weather"},{"name":"NOAA 21 (JPSS-2)","line1":"1 54234U 22150A   26091.48854356  .00000096  00000+0  66364-4 0  9992","line2":"2 54234  98.7581  31.4967 0002688  66.8741 293.2718 14.19558160175661","category":"Weather"},{"name":"SUOMI NPP","line1":"1 37849U 11061A   26091.51026123  .00000102  00000+0  69283-4 0  9992","line2":"2 37849  98.7899  32.9347 0001865 150.3832 209.7449 14.19499614747565","category":"Weather"},{"name":"NOAA 17","line1":"1 27453U 02032A   26091.47655914  .00000238  00000+0  11829-3 0  9993","line2":"2 27453  98.8582  56.3532 0010997 209.6836 150.3721 14.26202291236051","category":"Weather"}]}